[{"OBJECT_NAME":"STARLINK-2131","OBJECT_ID":"2021-017G","EPOCH":"2026-03-09T15:20:13.953696","MEAN_MOTION":15.06408126,"ECCENTRICITY":0.0001618,"INCLINATION":53.0571,"RA_OF_ASC_NODE":201.8436,"ARG_OF_PERICENTER":125.932,"MEAN_ANOMALY":234.1819,"EPHEMERIS_TYPE":0,"CLASSIFICATION_TYPE":"U","NORAD_CAT_ID":47728,"ELEMENT_SET_NO":999,"REV_AT_EPOCH":27791,"BSTAR":0.00012702,"MEAN_MOTION_DOT":1.611e-5,"MEAN_MOTION_DDOT":0},{"OBJECT_NAME":"CZ-4B DEB","OBJECT_ID":"2006-046E","EPOCH":"2026-03-09T15:05:34.126944","MEAN_MOTION":15.05038248,"ECCENTRICITY":0.0035443,"INCLINATION":97.6504,"RA_OF_ASC_NODE":126.4986,"ARG_OF_PERICENTER":210.976,"MEAN_ANOMALY":148.9377,"EPHEMERIS_TYPE":0,"CLASSIFICATION_TYPE":"U","NORAD_CAT_ID":29509,"ELEMENT_SET_NO":999,"REV_AT_EPOCH":5351,"BSTAR":0.00027248,"MEAN_MOTION_DOT":3.86e-5,"MEAN_MOTION_DDOT":0}]
